OBJECT_NAME,OBJECT_ID,EPOCH,MEAN_MOTION,ECCENTRICITY,INCLINATION,RA_OF_ASC_NODE,ARG_OF_PERICENTER,MEAN_ANOMALY,EPHEMERIS_TYPE,CLASSIFICATION_TYPE,NORAD_CAT_ID,ELEMENT_SET_NO,REV_AT_EPOCH,BSTAR,MEAN_MOTION_DOT,MEAN_MOTION_DDOT
SWARM B,2013-067A,2026-06-16T14:38:33.427968,15.28548511,.00032852,87.7436,342.4919,85.8055,274.3569,0,U,39451,999,68315,.1050866E-3,.2952E-4,0
SWARM A,2013-067B,2026-06-16T12:14:17.179584,15.50942285,.00030076,87.3325,56.4938,94.9512,265.2092,0,U,39452,999,70614,.14602238E-3,.8497E-4,0
SWARM C,2013-067C,2026-06-16T12:14:07.339488,15.50941032,.00029849,87.3324,55.0748,95.0669,265.0933,0,U,39453,999,70610,.1482317E-3,.8625E-4,0
BRITE-CA1 (TORONTO),2014-033L,2026-06-16T08:36:00.480960,14.72675728,.00772282,97.9738,296.3015,279.7207,79.5284,0,U,40020,999,64209,.98796361E-4,.605E-5,0
OCO 2,2014-035A,2026-06-16T12:53:56.169024,14.57110742,.00015037,98.2017,108.8404,85.4169,274.7201,0,U,40059,999,63595,.81346171E-4,.321E-5,0
BRITE-PL2 (HEWELIUSZ),2014-049B,2026-06-16T07:14:54.064032,14.94590679,.0015251,97.9097,279.2951,111.1081,249.1771,0,U,40119,999,64131,.13881E-3,.1445E-4,0
MMS 1,2015-011A,2026-06-16T16:00:00.999936,0.28352088,.83214639,72.1704,348.7693,167.4237,245.3376,0,U,40482,999,137,0,-.75E-5,0
MMS 2,2015-011B,2026-06-16T16:00:00.999936,0.28352113,.83222484,72.1706,348.7715,167.4293,245.3263,0,U,40483,999,137,0,-.75E-5,0
MMS 3,2015-011C,2026-06-16T16:00:00.999936,0.28351109,.8321065,72.1689,348.7717,167.4308,245.3153,0,U,40484,999,137,0,-.75E-5,0
MMS 4,2015-011D,2026-06-16T16:00:00.999936,0.28351109,.83210651,72.1689,348.7717,167.4308,245.3153,0,U,40485,999,137,0,-.75E-5,0
ASTROSAT,2015-052A,2026-06-15T13:03:37.935648,14.82504818,.00078138,5.9956,167.1769,7.2508,352.7733,0,U,40930,999,57958,.92748678E-4,.1433E-4,0
DAMPE,2015-078A,2026-06-16T13:55:20.269344,15.30784952,.00138025,97.4548,173.0439,79.0209,281.2583,0,U,41173,999,58445,.45295683E-4,.1273E-4,0
PISAT,2016-059B,2026-06-16T12:44:35.922048,14.68982430,.00283245,97.8179,168.0120,204.9217,155.0623,0,U,41784,999,51964,.12549786E-3,.692E-5,0
HXMT (HUIYAN),2017-034A,2026-06-16T13:00:58.502592,15.18474560,.00305132,43.0125,186.6319,142.9275,217.3688,0,U,42758,999,49756,.12159439E-3,.2335E-4,0
FLYING LAPTOP,2017-042G,2026-06-16T15:39:15.494688,15.01143904,.00195587,97.4681,323.2052,123.3549,236.9551,0,U,42831,999,48637,.27200747E-3,.3441E-4,0
ZHANGHENG 1-01 (CSES-1),2018-015C,2026-06-16T14:42:10.363680,15.20804486,.00170506,97.6868,333.2583,268.5835,91.3446,0,U,43194,999,46455,.26452664E-3,.5781E-4,0
SALSAT,2020-068K,2026-06-16T13:21:50.060160,15.29791688,.00080362,97.8845,170.5831,310.6288,49.4251,0,U,46495,999,31526,.21871649E-3,.6231E-4,0
IXPE,2021-121A,2026-06-16T14:00:01.000224,15.10245655,.00075334,0.2305,322.3444,69.0047,193.0993,0,U,49954,999,547,.42965997E-3,.8167E-4,0
SMILE,2026-109A,2026-05-24T15:40:35.120928,14.57062785,.00091232,70.0007,229.2745,259.5159,100.4951,0,U,69123,999,80,-.42378883E-3,-.1976E-4,0
