SWARM B                 
1 39451U 13067A   26167.61010912  .00002952  00000+0  10509-3 0  9996
2 39451  87.7436 342.4919 0003285  85.8055 274.3569 15.28548511683159
SWARM A                 
1 39452U 13067B   26167.50992106  .00008497  00000+0  14602-3 0  9997
2 39452  87.3325  56.4938 0003007  94.9512 265.2092 15.50942285706143
SWARM C                 
1 39453U 13067C   26167.50980717  .00008625  00000+0  14823-3 0  9991
2 39453  87.3324  55.0748 0002984  95.0669 265.0933 15.50941032706102
BRITE-CA1 (TORONTO)     
1 40020U 14033L   26167.35833890  .00000605  00000+0  98796-4 0  9991
2 40020  97.9738 296.3015 0077228 279.7207  79.5284 14.72675728642092
OCO 2                   
1 40059U 14035A   26167.53745566  .00000321  00000+0  81346-4 0  9995
2 40059  98.2017 108.8404 0001503  85.4169 274.7201 14.57110742635957
BRITE-PL2 (HEWELIUSZ)   
1 40119U 14049B   26167.30201463  .00001445  00000+0  13881-3 0  9991
2 40119  97.9097 279.2951 0015251 111.1081 249.1771 14.94590679641310
MMS 1                   
1 40482U 15011A   26167.66667824 -.00000750  00000+0  00000+0 0  9994
2 40482  72.1704 348.7693 8321463 167.4237 245.3376  0.28352088  1375
MMS 2                   
1 40483U 15011B   26167.66667824 -.00000750  00000+0  00000+0 0  9995
2 40483  72.1706 348.7715 8322248 167.4293 245.3263  0.28352113  1371
MMS 3                   
1 40484U 15011C   26167.66667824 -.00000750  00000+0  00000+0 0  9996
2 40484  72.1689 348.7717 8321065 167.4308 245.3153  0.28351109  1379
MMS 4                   
1 40485U 15011D   26167.66667824 -.00000750  00000+0  00000+0 0  9997
2 40485  72.1689 348.7717 8321065 167.4308 245.3153  0.28351109  1370
ASTROSAT                
1 40930U 15052A   26166.54418907  .00001433  00000+0  92749-4 0  9993
2 40930   5.9956 167.1769 0007813   7.2508 352.7733 14.82504818579585
DAMPE                   
1 41173U 15078A   26167.58009571  .00001273  00000+0  45296-4 0  9996
2 41173  97.4548 173.0439 0013802  79.0209 281.2583 15.30784952584452
PISAT                   
1 41784U 16059B   26167.53097132  .00000692  00000+0  12550-3 0  9999
2 41784  97.8179 168.0120 0028324 204.9217 155.0623 14.68982430519641
HXMT (HUIYAN)           
1 42758U 17034A   26167.54234378  .00002335  00000+0  12159-3 0  9992
2 42758  43.0125 186.6319 0030513 142.9275 217.3688 15.18474560497566
FLYING LAPTOP           
1 42831U 17042G   26167.65226267  .00003441  00000+0  27201-3 0  9996
2 42831  97.4681 323.2052 0019558 123.3549 236.9551 15.01143904486374
ZHANGHENG 1-01 (CSES-1) 
1 43194U 18015C   26167.61261995  .00005781  00000+0  26453-3 0  9990
2 43194  97.6868 333.2583 0017050 268.5835  91.3446 15.20804486464553
SALSAT                  
1 46495U 20068K   26167.55682940  .00006231  00000+0  21872-3 0  9999
2 46495  97.8845 170.5831 0008036 310.6288  49.4251 15.29791688315269
IXPE                    
1 49954U 21121A   26167.58334491  .00008167  00000+0  42966-3 0  9998
2 49954   0.2305 322.3444 0007533  69.0047 193.0993 15.10245655  5473
SMILE                   
1 69123U 26109A   26144.65318427 -.00001976  00000+0 -42379-3 0  9994
2 69123  70.0007 229.2745 0009123 259.5159 100.4951 14.57062785   802
